{"type": "FeatureCollection", "features": [ {"type": "Feature", "properties": {"norad_id": 54234, "name": "NOAA 21 (JPSS-2)", "group": "weather", "lat": -77.38767480866507, "lon": 51.84108711138556, "alt_km": 835.8707635461396, "timestamp": "2025-12-04T21:36:15.516801+00:00", "meta": {"OBJECT_NAME": "NOAA 21 (JPSS-2)", "OBJECT_ID": "2022-150A", "EPOCH": "2025-12-04T13:36:44.825472", "MEAN_MOTION": 14.19520668, "ECCENTRICITY": 0.00025035, "INCLINATION": 98.745, "RA_OF_ASC_NODE": 274.9779, "ARG_OF_PERICENTER": 53.3908, "MEAN_ANOMALY": 306.7498, "EPHEMERIS_TYPE": 0, "CLASSIFICATION_TYPE": "U", "NORAD_CAT_ID": 54234, "ELEMENT_SET_NO": 999, "REV_AT_EPOCH": 15893, "BSTAR": 0.00011911678, "MEAN_MOTION_DOT": 2.07e-06, "MEAN_MOTION_DDOT": 0}, "tle": {"line1": "1 54234U 22150A   25338.56718548  .00000207  00000+0  11912-3 0  9998", "line2": "2 54234  98.7450 274.9779 0002503  53.3908 306.7498 14.19520668158931"}}, "geometry": {"type": "Point", "coordinates": [51.84108711138556, -77.38767480866507]}}, {"type": "Feature", "properties": {"norad_id": 54743, "name": "METEOSAT-12 (MTG-I1)", "group": "weather", "lat": 0.11981372126434357, "lon": 37.74437370540262, "alt_km": 35791.10969012231, "timestamp": "2025-12-04T21:36:15.516815+00:00", "meta": {"OBJECT_NAME": "METEOSAT-12 (MTG-I1)", "OBJECT_ID": "2022-170C", "EPOCH": "2025-12-04T05:09:49.421376", "MEAN_MOTION": 1.00273795, "ECCENTRICITY": 0.00015299, "INCLINATION": 0.7187, "RA_OF_ASC_NODE": 30.1576, "ARG_OF_PERICENTER": 217.1226, "MEAN_ANOMALY": 263.1859, "EPHEMERIS_TYPE": 0, "CLASSIFICATION_TYPE": "U", "NORAD_CAT_ID": 54743, "ELEMENT_SET_NO": 999, "REV_AT_EPOCH": 1102, "BSTAR": 0, "MEAN_MOTION_DOT": 9e-08, "MEAN_MOTION_DDOT": 0}, "tle": {"line1": "1 54743U 22170C   25338.21515534  .00000009  00000+0  00000+0 0  9999", "line2": "2 54743   0.7187  30.1576 0001529 217.1226 263.1859  1.00273795 11020"}}, "geometry": {"type": "Point", "coordinates": [37.74437370540262, 0.11981372126434357]}}, {"type": "Feature", "properties": {"norad_id": 55973, "name": "TIANMU-1 03", "group": "weather", "lat": 10.682900604866477, "lon": 139.90865670996638, "alt_km": 445.0748712687255, "timestamp": "2025-12-04T21:36:15.516826+00:00", "meta": {"OBJECT_NAME": "TIANMU-1 03", "OBJECT_ID": "2023-039A", "EPOCH": "2025-12-04T15:19:19.863840", "MEAN_MOTION": 15.40566082, "ECCENTRICITY": 0.0004544, "INCLINATION": 97.5102, "RA_OF_ASC_NODE": 141.0659, "ARG_OF_PERICENTER": 84.309, "MEAN_ANOMALY": 275.8674, "EPHEMERIS_TYPE": 0, "CLASSIFICATION_TYPE": "U", "NORAD_CAT_ID": 55973, "ELEMENT_SET_NO": 999, "REV_AT_EPOCH": 15081, "BSTAR": 0.00071332958, "MEAN_MOTION_DOT": 0.0002899, "MEAN_MOTION_DDOT": 0}, "tle": {"line1": "1 55973U 23039A   25338.63842435  .00028990  00000+0  71333-3 0  9999", "line2": "2 55973  97.5102 141.0659 0004544  84.3090 275.8674 15.40566082150813"}}, "geometry": {"type": "Point", "coordinates": [139.90865670996638, 10.682900604866477]}}, {"type": "Feature", "properties": {"norad_id": 55974, "name": "TIANMU-1 04", "group": "weather", "lat": 63.404495654871326, "lon": -24.20720858738819, "alt_km": 434.3829410760791, "timestamp": "2025-12-04T21:36:15.516837+00:00", "meta": {"OBJECT_NAME": "TIANMU-1 04", "OBJECT_ID": "2023-039B", "EPOCH": "2025-12-04T14:52:15.236256", "MEAN_MOTION": 15.4089534, "ECCENTRICITY": 0.00052219, "INCLINATION": 97.5034, "RA_OF_ASC_NODE": 140.241, "ARG_OF_PERICENTER": 80.5395, "MEAN_ANOMALY": 279.6441, "EPHEMERIS_TYPE": 0, "CLASSIFICATION_TYPE": "U", "NORAD_CAT_ID": 55974, "ELEMENT_SET_NO": 999, "REV_AT_EPOCH": 15081, "BSTAR": 0.00073194518, "MEAN_MOTION_DOT": 0.00030082, "MEAN_MOTION_DDOT": 0}, "tle": {"line1": "1 55974U 23039B   25338.61962079  .00030082  00000+0  73195-3 0  9998", "line2": "2 55974  97.5034 140.2410 0005221  80.5395 279.6441 15.40895340150819"}}, "geometry": {"type": "Point", "coordinates": [-24.20720858738819, 63.404495654871326]}}, {"type": "Feature", "properties": {"norad_id": 55975, "name": "TIANMU-1 05", "group": "weather", "lat": 21.659721875837946, "lon": -35.97658944570352, "alt_km": 442.85751556089235, "timestamp": "2025-12-04T21:36:15.516847+00:00", "meta": {"OBJECT_NAME": "TIANMU-1 05", "OBJECT_ID": "2023-039C", "EPOCH": "2025-12-04T16:14:38.999328", "MEAN_MOTION": 15.40525319, "ECCENTRICITY": 0.00043174, "INCLINATION": 97.5081, "RA_OF_ASC_NODE": 140.7917, "ARG_OF_PERICENTER": 101.1778, "MEAN_ANOMALY": 258.9954, "EPHEMERIS_TYPE": 0, "CLASSIFICATION_TYPE": "U", "NORAD_CAT_ID": 55975, "ELEMENT_SET_NO": 999, "REV_AT_EPOCH": 15080, "BSTAR": 0.00071295367, "MEAN_MOTION_DOT": 0.00028935, "MEAN_MOTION_DDOT": 0}, "tle": {"line1": "1 55975U 23039C   25338.67684027  .00028935  00000+0  71295-3 0  9992", "line2": "2 55975  97.5081 140.7917 0004317 101.1778 258.9954 15.40525319150803"}}, "geometry": {"type": "Point", "coordinates": [-35.97658944570352, 21.659721875837946]}}, {"type": "Feature", "properties": {"norad_id": 55976, "name": "TIANMU-1 06", "group": "weather", "lat": 75.87575818076752, "lon": -6.9048585627446, "alt_km": 432.9182643801669, "timestamp": "2025-12-04T21:36:15.516857+00:00", "meta": {"OBJECT_NAME": "TIANMU-1 06", "OBJECT_ID": "2023-039D", "EPOCH": "2025-12-04T16:29:17.543904", "MEAN_MOTION": 15.4095133, "ECCENTRICITY": 0.00046799, "INCLINATION": 97.5092, "RA_OF_ASC_NODE": 141.2607, "ARG_OF_PERICENTER": 96.6771, "MEAN_ANOMALY": 263.5008, "EPHEMERIS_TYPE": 0, "CLASSIFICATION_TYPE": "U", "NORAD_CAT_ID": 55976, "ELEMENT_SET_NO": 999, "REV_AT_EPOCH": 15082, "BSTAR": 0.00071027371, "MEAN_MOTION_DOT": 0.00029237, "MEAN_MOTION_DDOT": 0}, "tle": {"line1": "1 55976U 23039D   25338.68700861  .00029237  00000+0  71027-3 0  9998", "line2": "2 55976  97.5092 141.2607 0004679  96.6771 263.5008 15.40951330150820"}}, "geometry": {"type": "Point", "coordinates": [-6.9048585627446, 75.87575818076752]}}, {"type": "Feature", "properties": {"norad_id": 56232, "name": "FENGYUN 3G", "group": "weather", "lat": 31.949799589252148, "lon": 56.30302027636752, "alt_km": 398.18005190593067, "timestamp": "2025-12-04T21:36:15.516869+00:00", "meta": {"OBJECT_NAME": "FENGYUN 3G", "OBJECT_ID": "2023-055A", "EPOCH": "2025-12-04T14:50:37.925664", "MEAN_MOTION": 15.52916271, "ECCENTRICITY": 0.00092059, "INCLINATION": 49.9949, "RA_OF_ASC_NODE": 269.3417, "ARG_OF_PERICENTER": 109.5556, "MEAN_ANOMALY": 250.6406, "EPHEMERIS_TYPE": 0, "CLASSIFICATION_TYPE": "U", "NORAD_CAT_ID": 56232, "ELEMENT_SET_NO": 999, "REV_AT_EPOCH": 14976, "BSTAR": 0.00094024716, "MEAN_MOTION_DOT": 0.00059721, "MEAN_MOTION_DDOT": 0}, "tle": {"line1": "1 56232U 23055A   25338.61849451  .00059721  00000+0  94025-3 0  9998", "line2": "2 56232  49.9949 269.3417 0009205 109.5556 250.6406 15.52916271149762"}}, "geometry": {"type": "Point", "coordinates": [56.30302027636752, 31.949799589252148]}}, {"type": "Feature", "properties": {"norad_id": 57166, "name": "METEOR-M2 3", "group": "weather", "lat": 39.97636607882966, "lon": 25.253224070496874, "alt_km": 805.5576435584107, "timestamp": "2025-12-04T21:36:15.516881+00:00", "meta": {"OBJECT_NAME": "METEOR-M2 3", "OBJECT_ID": "2023-091A", "EPOCH": "2025-12-04T14:40:10.196832", "MEAN_MOTION": 14.24024627, "ECCENTRICITY": 0.00043442, "INCLINATION": 98.639, "RA_OF_ASC_NODE": 32.2922, "ARG_OF_PERICENTER": 30.7762, "MEAN_ANOMALY": 329.3671, "EPHEMERIS_TYPE": 0, "CLASSIFICATION_TYPE": "U", "NORAD_CAT_ID": 57166, "ELEMENT_SET_NO": 999, "REV_AT_EPOCH": 12682, "BSTAR": 5.2317742e-05, "MEAN_MOTION_DOT": 7.7e-07, "MEAN_MOTION_DDOT": 0}, "tle": {"line1": "1 57166U 23091A   25338.61122913  .00000077  00000+0  52318-4 0  9992", "line2": "2 57166  98.6390  32.2922 0004344  30.7762 329.3671 14.24024627126824"}}, "geometry": {"type": "Point", "coordinates": [25.253224070496874, 39.97636607882966]}}, {"type": "Feature", "properties": {"norad_id": 57399, "name": "TIANMU-1 07", "group": "weather", "lat": 1.1145061695239284, "lon": -150.93318085692164, "alt_km": 484.2207065143166, "timestamp": "2025-12-04T21:36:15.516891+00:00", "meta": {"OBJECT_NAME": "TIANMU-1 07", "OBJECT_ID": "2023-101A", "EPOCH": "2025-12-04T14:32:15.879840", "MEAN_MOTION": 15.2789197, "ECCENTRICITY": 0.00056288, "INCLINATION": 97.2891, "RA_OF_ASC_NODE": 28.6362, "ARG_OF_PERICENTER": 102.0717, "MEAN_ANOMALY": 258.1154, "EPHEMERIS_TYPE": 0, "CLASSIFICATION_TYPE": "U", "NORAD_CAT_ID": 57399, "ELEMENT_SET_NO": 999, "REV_AT_EPOCH": 13191, "BSTAR": 0.00059743113, "MEAN_MOTION_DOT": 0.00016219, "MEAN_MOTION_DDOT": 0}, "tle": {"line1": "1 57399U 23101A   25338.60573935  .00016219  00000+0  59743-3 0  9998", "line2": "2 57399  97.2891  28.6362 0005628 102.0717 258.1154 15.27891970131917"}}, "geometry": {"type": "Point", "coordinates": [-150.93318085692164, 1.1145061695239284]}}, {"type": "Feature", "properties": {"norad_id": 57400, "name": "TIANMU-1 08", "group": "weather", "lat": 0.6591921603871819, "lon": 28.63939476320036, "alt_km": 486.46035721665794, "timestamp": "2025-12-04T21:36:15.516904+00:00", "meta": {"OBJECT_NAME": "TIANMU-1 08", "OBJECT_ID": "2023-101B", "EPOCH": "2025-12-04T15:18:50.895648", "MEAN_MOTION": 15.27876556, "ECCENTRICITY": 0.00074601, "INCLINATION": 97.2879, "RA_OF_ASC_NODE": 28.4675, "ARG_OF_PERICENTER": 106.5409, "MEAN_ANOMALY": 253.6651, "EPHEMERIS_TYPE": 0, "CLASSIFICATION_TYPE": "U", "NORAD_CAT_ID": 57400, "ELEMENT_SET_NO": 999, "REV_AT_EPOCH": 13191, "BSTAR": 0.00059192403, "MEAN_MOTION_DOT": 0.00016066, "MEAN_MOTION_DDOT": 0}, "tle": {"line1": "1 57400U 23101B   25338.63808907  .00016066  00000+0  59192-3 0  9992", "line2": "2 57400  97.2879  28.4675 0007460 106.5409 253.6651 15.27876556131919"}}, "geometry": {"type": "Point", "coordinates": [28.63939476320036, 0.6591921603871819]}}]}